STARLINK-5600
1 57357U 23099AF  26092.83335647  .01753250  00000+0  91200-1 0  9993
2 57357  43.0000 104.6424 0002083 226.9916 351.4694 15.12082403  5660
STARLINK-30186
1 57470U 23107P   26092.70496379  .00052604  00000+0  29925-2 0  9995
2 57470  43.0017 205.2775 0003138 264.3871  95.6617 15.12100776148764
